[{"OBJECT_NAME":"HAWK-2B","OBJECT_ID":"2021-006CZ","EPOCH":"2026-03-09T16:13:51.664224","MEAN_MOTION":15.33301353,"ECCENTRICITY":0.00071021,"INCLINATION":97.2334,"RA_OF_ASC_NODE":114.114,"ARG_OF_PERICENTER":185.9063,"MEAN_ANOMALY":174.2098,"EPHEMERIS_TYPE":0,"CLASSIFICATION_TYPE":"U","NORAD_CAT_ID":47508,"ELEMENT_SET_NO":999,"REV_AT_EPOCH":28424,"BSTAR":0.00029650607,"MEAN_MOTION_DOT":9.474e-5,"MEAN_MOTION_DDOT":0},{"OBJECT_NAME":"STARLINK-2639","OBJECT_ID":"2021-040J","EPOCH":"2026-03-10T00:00:02.999808","MEAN_MOTION":15.30164085,"ECCENTRICITY":0.00013103,"INCLINATION":53.1581,"RA_OF_ASC_NODE":176.7275,"ARG_OF_PERICENTER":93.8594,"MEAN_ANOMALY":262.6458,"EPHEMERIS_TYPE":0,"CLASSIFICATION_TYPE":"U","NORAD_CAT_ID":48436,"ELEMENT_SET_NO":999,"REV_AT_EPOCH":574,"BSTAR":0.00025256746,"MEAN_MOTION_DOT":7.12e-5,"MEAN_MOTION_DDOT":0}]
